EPOCH,NORAD_CAT_ID,MEAN_MOTION,ECCENTRICITY,INCLINATION,RA_OF_ASC_NODE,ARG_OF_PERICENTER,MEAN_ANOMALY,MEAN_MOTION_DOT,BSTAR,TLE_LINE1,TLE_LINE2
2022-08-12 12:38:31.009056,50803,15.08833544,0.00018380,53.2172,268.2184,51.8054,308.3103,0.00002127,0.00015171000000,1 50803U 22001A   22224.52674779  .00002127  00000-0  15171-3 0  9990,2 50803  53.2172 268.2184 0001838  51.8054 308.3103 15.08833544 34648
2022-08-13 09:18:32.139072,50803,15.08834201,0.00017570,53.2170,264.3532,50.2525,309.8622,0.00000751,0.00006529300000,1 50803U 22001A   22225.38787198  .00000751  00000-0  65293-4 0  9997,2 50803  53.2170 264.3532 0001757  50.2525 309.8622 15.08834201 33503
2022-08-14 01:12:23.727168,50803,15.08835860,0.00018210,53.2171,261.3793,52.2896,307.8261,-0.00000040,0.00001560600000,1 50803U 22001A   22226.05027462 -.00000040  00000-0  15606-4 0  9998,2 50803  53.2171 261.3793 0001821  52.2896 307.8261 15.08835860 34875
2022-08-14 07:33:56.111328,50803,15.08838850,0.00018690,53.2171,260.1901,52.1239,307.9922,0.00000232,0.00003266900000,1 50803U 22001A   22226.31523277  .00000232  00000-0  32669-4 0  9992,2 50803  53.2171 260.1901 0001869  52.1239 307.9922 15.08838850 33646
2022-08-14 09:09:19.230912,50803,15.08838941,0.00018770,53.2170,259.8926,51.0006,309.1153,0.00000414,0.00004410800000,1 50803U 22001A   22226.38147258  .00000414  00000-0  44108-4 0  9993,2 50803  53.2170 259.8926 0001877  51.0006 309.1153 15.08838941 33658
2022-08-15 02:38:33.342432,50803,15.08844959,0.00019180,53.2169,256.6222,50.9114,309.2048,0.00000259,0.00003435300000,1 50803U 22001A   22227.11010813  .00000259  00000-0  34353-4 0  9999,2 50803  53.2169 256.6222 0001918  50.9114 309.2048 15.08844959 35038
2022-08-15 07:24:42.330528,50803,15.08858609,0.00022570,53.2170,255.7302,55.3339,304.7865,-0.00002418,-0.00013380000000,1 50803U 22001A   22227.30882327 -.00002418  00000-0 -13380-3 0  9994,2 50803  53.2170 255.7302 0002257  55.3339 304.7865 15.08858609 33799
2022-08-15 07:24:42.330528,50803,15.08858609,0.00022570,53.2170,255.7302,55.3339,304.7865,-0.00002418,-0.00013380000000,1 50803U 22001A   22227.30882327 -.00002418  00000-0 -13380-3 0  9994,2 50803  53.2170 255.7302 0002257  55.3339 304.7865 15.08858609 35061
2022-08-16 07:15:30.157632,50803,15.08838842,0.00018060,53.2170,251.2699,53.7086,306.4073,0.00000569,0.00005384300000,1 50803U 22001A   22228.30243238  .00000569  00000-0  53843-4 0  9999,2 50803  53.2170 251.2699 0001806  53.7086 306.4073 15.08838842 35215
2022-08-16 10:26:16.783872,50803,15.08834752,0.00019080,53.2169,250.6752,51.4604,308.6559,-0.00000050,0.00001495600000,1 50803U 22001A   22228.43491648 -.00000050  00000-0  14956-4 0  9991,2 50803  53.2169 250.6752 0001908  51.4604 308.6559 15.08834752 33969
2022-08-17 08:41:40.628256,50803,15.08837506,0.00019200,53.2169,246.5115,59.5147,300.6034,0.00000326,0.00003858900000,1 50803U 22001A   22229.36227579  .00000326  00000-0  38589-4 0  9997,2 50803  53.2169 246.5115 0001920  59.5147 300.6034 15.08837506 34108
2022-08-17 08:41:40.628256,50803,15.08837506,0.00019200,53.2169,246.5115,59.5147,300.6034,0.00000326,0.00003858900000,1 50803U 22001A   22229.36227579  .00000326  00000-0  38589-4 0  9997,2 50803  53.2169 246.5115 0001920  59.5147 300.6034 15.08837506 35378
2022-08-18 10:07:50.392128,50803,15.08843038,0.00019690,53.2168,241.7535,51.0237,309.0931,0.00002156,0.00015349000000,1 50803U 22001A   22230.42211102  .00002156  00000-0  15349-3 0  9992,2 50803  53.2168 241.7535 0001969  51.0237 309.0931 15.08843038 35534
2022-08-18 10:07:50.392128,50803,15.08843038,0.00019690,53.2168,241.7535,51.0237,309.0931,0.00002156,0.00015349000000,1 50803U 22001A   22230.42211102  .00002156  00000-0  15349-3 0  9992,2 50803  53.2168 241.7535 0001969  51.0237 309.0931 15.08843038 34263
2022-08-19 06:47:50.518176,50803,15.08851648,0.00019870,53.2168,237.8875,52.7484,307.3689,0.00002563,0.00017904000000,1 50803U 22001A   22231.28322359  .00002563  00000-0  17904-3 0  9995,2 50803  53.2168 237.8875 0001987  52.7484 307.3689 15.08851648 34399
2022-08-19 17:55:33.316896,50803,15.08838612,0.00020170,53.2160,235.8059,51.8547,308.2626,0.00000144,0.00002713500000,1 50803U 22001A   22231.74691339  .00000144  00000-0  27135-4 0  9994,2 50803  53.2160 235.8059 0002017  51.8547 308.2626 15.08838612 35734
2022-08-19 17:55:33.316896,50803,15.08838612,0.00020170,53.2160,235.8059,51.8547,308.2626,0.00000144,0.00002713500000,1 50803U 22001A   22231.74691339  .00000144  00000-0  27135-4 0  9994,2 50803  53.2160 235.8059 0002017  51.8547 308.2626 15.08838612 34463
2022-08-20 06:38:38.206176,50803,15.08843678,0.00020140,53.2159,233.4273,50.9811,309.1360,0.00001003,0.00008112600000,1 50803U 22001A   22232.27683109  .00001003  00000-0  81126-4 0  9994,2 50803  53.2159 233.4273 0002014  50.9811 309.1360 15.08843678 34546
2022-08-21 01:43:15.741408,50803,15.08843185,0.00021200,53.2158,229.8594,46.9111,313.2058,0.00003063,0.00021045000000,1 50803U 22001A   22233.07170997  .00003063  00000-0  21045-3 0  9990,2 50803  53.2158 229.8594 0002120  46.9111 313.2058 15.08843185 35933
2022-08-21 06:29:24.913536,50803,15.08847872,0.00020200,53.2159,228.9668,53.1392,306.9785,0.00001975,0.00014210000000,1 50803U 22001A   22233.27042724  .00001975  00000-0  14210-3 0  9994,2 50803  53.2159 228.9668 0002020  53.1392 306.9785 15.08847872 34691
2022-08-21 23:58:40.445472,50803,15.08828991,0.00020330,53.2159,225.6958,55.8573,304.2612,-0.00001360,-0.00006740300000,1 50803U 22001A   22233.99907923 -.00001360  00000-0 -67403-4 0  9997,2 50803  53.2159 225.6958 0002033  55.8573 304.2612 15.08828991 36076
2022-08-22 07:55:36.289632,50803,15.08831656,0.00020000,53.2169,224.2098,53.9061,306.2116,-0.00000001,0.00001807800000,1 50803U 22001A   22234.33028113 -.00000001  00000-0  18078-4 0  9995,2 50803  53.2169 224.2098 0002000  53.9061 306.2116 15.08831656 34859
2022-08-22 15:52:32.060352,50803,15.08832355,0.00020210,53.2169,222.7225,53.6169,306.5009,0.00000007,0.00001855500000,1 50803U 22001A   22234.66148218  .00000007  00000-0  18555-4 0  9995,2 50803  53.2169 222.7225 0002021  53.6169 306.5009 15.08832355 34900
2022-08-23 03:00:13.973472,50803,15.08835668,0.00020260,53.2170,220.6410,53.8004,306.3175,-0.00000267,0.00000132810000,1 50803U 22001A   22235.12516173 -.00000267  00000-0  13281-5 0  9997,2 50803  53.2170 220.6410 0002026  53.8004 306.3175 15.08835668 36241
2022-08-23 07:46:23.387520,50803,15.08835975,0.00020410,53.2169,219.7489,53.4048,306.7131,-0.00000354,-0.00000411370000,1 50803U 22001A   22235.32388180 -.00000354  00000-0 -41137-5 0  9993,2 50803  53.2169 219.7489 0002041  53.4048 306.7131 15.08835975 35005
2022-08-23 15:43:19.265376,50803,15.08830053,0.00020560,53.2169,218.2618,51.7544,308.3633,0.00000929,0.00007649100000,1 50803U 22001A   22235.65508409  .00000929  00000-0  76491-4 0  9993,2 50803  53.2169 218.2618 0002056  51.7544 308.3633 15.08830053 35053
2022-08-24 06:01:47.515296,50803,15.08834784,0.00021010,53.2170,215.5856,52.6143,307.5040,0.00001300,0.00009978100000,1 50803U 22001A   22236.25124439  .00001300  00000-0  99781-4 0  9998,2 50803  53.2170 215.5856 0002101  52.6143 307.5040 15.08834784 36414
2022-08-24 06:01:47.515296,50803,15.08834784,0.00021010,53.2170,215.5856,52.6143,307.5040,0.00001300,0.00009978100000,1 50803U 22001A   22236.25124439  .00001300  00000-0  99781-4 0  9998,2 50803  53.2170 215.5856 0002101  52.6143 307.5040 15.08834784 35143
2022-08-25 09:03:20.491200,50803,15.08843037,0.00022030,53.2170,210.5304,53.1615,306.9579,0.00001317,0.00010086000000,1 50803U 22001A   22237.37732050  .00001317  00000-0  10086-3 0  9994,2 50803  53.2170 210.5304 0002203  53.1615 306.9579 15.08843037 35319
2022-08-25 09:03:20.491200,50803,15.08843037,0.00022030,53.2170,210.5304,53.1615,306.9579,0.00001317,0.00010086000000,1 50803U 22001A   22237.37732050  .00001317  00000-0  10086-3 0  9994,2 50803  53.2170 210.5304 0002203  53.1615 306.9579 15.08843037 36589
2022-08-26 07:18:43.932960,50803,15.08846788,0.00022260,53.2167,206.3672,54.0563,306.0635,0.00000940,0.00007715100000,1 50803U 22001A   22238.30467515  .00000940  00000-0  77151-4 0  9997,2 50803  53.2167 206.3672 0002226  54.0563 306.0635 15.08846788 35458
2022-08-27 07:09:31.497408,50803,15.08840941,0.00023630,53.2170,201.9069,54.8876,305.2337,-0.00000257,0.00000194820000,1 50803U 22001A   22239.29828122 -.00000257  00000-0  19482-5 0  9997,2 50803  53.2170 201.9069 0002363  54.8876 305.2337 15.08840941 35602
2022-08-27 21:27:59.168448,50803,15.08847300,0.00022700,53.2173,199.2306,56.4708,303.6501,0.00000121,0.00002571300000,1 50803U 22001A   22239.89443482  .00000121  00000-0  25713-4 0  9997,2 50803  53.2173 199.2306 0002270  56.4708 303.6501 15.08847300 35697
2022-08-28 03:49:31.409184,50803,15.08850485,0.00022850,53.2168,198.0415,55.2873,304.8334,0.00000811,0.00006903900000,1 50803U 22001A   22240.15939131  .00000811  00000-0  69039-4 0  9994,2 50803  53.2168 198.0415 0002285  55.2873 304.8334 15.08850485 37007
2022-08-28 07:00:17.529984,50803,15.08852456,0.00022800,53.2172,197.4463,56.8742,303.2469,0.00000853,0.00007165300000,1 50803U 22001A   22240.29186956  .00000853  00000-0  71653-4 0  9999,2 50803  53.2172 197.4463 0002280  56.8742 303.2469 15.08852456 35757
2022-08-29 03:40:19.123104,50803,15.08839637,0.00023000,53.2173,193.5804,58.2913,301.8303,0.00000592,0.00005527800000,1 50803U 22001A   22241.15299911  .00000592  00000-0  55278-4 0  9996,2 50803  53.2173 193.5804 0002300  58.2913 301.8303 15.08839637 37156
2022-08-29 06:51:05.402880,50803,15.08839280,0.00023050,53.2173,192.9856,58.0792,302.0424,0.00000476,0.00004799800000,1 50803U 22001A   22241.28547920  .00000476  00000-0  47998-4 0  9997,2 50803  53.2173 192.9856 0002305  58.0792 302.0424 15.08839280 35906
2022-08-30 05:06:30.041280,50803,15.08833235,0.00023330,53.2173,188.8221,58.4082,301.7137,-0.00001415,-0.00007084200000,1 50803U 22001A   22242.21284770 -.00001415  00000-0 -70842-4 0  9992,2 50803  53.2173 188.8221 0002333  58.4082 301.7137 15.08833235 37311
